[
  {
    "name": "PLEIADES NEO 3",
    "line1": "1 48268U 21034A   26016.98042172  .00000399  00000+0  57319-4 0  9995",
    "line2": "2 48268  97.8947  93.9168 0001368  90.9265 269.2105 14.81675932255260",
    "catNr": 48268
  },
  {
    "name": "PLEIADES NEO 4",
    "line1": "1 49070U 21073E   26016.94664586 -.00000077  00000+0 -32129-5 0  9993",
    "line2": "2 49070  97.8948  93.8794 0001313  92.9655 267.1708 14.81669763238972",
    "catNr": 49070
  }
]